FENGYUN 1C DEB          
1 35176U 99025DNG 17345.36939634  .00000117  00000-0  83122-4 0  9999
2 35176  98.7529  37.7756 0057030 150.9568 209.4798 14.13709959501113
